GSAT0101 (PRN E11)      
1 37846U 11060A   23277.21257668 -.00000111  00000+0  00000+0 0  9996
2 37846  57.1122   8.4914 0000598  61.3584 298.6765  1.70475902 74293
GSAT0102 (PRN E12)      
1 37847U 11060B   23271.94740137 -.00000101  00000+0  00000+0 0  9998
2 37847  57.1126   8.6339 0001562 310.9334 103.9673  1.70475154 74216
GSAT0103 (PRN E19)      
1 38857U 12055A   23277.25176016  .00000014  00000+0  00000+0 0  9996
2 38857  55.2938 128.6697 0002181 251.5092 108.5516  1.70473729 68189
GSAT0104 (PRN E20)      
1 38858U 12055B   23277.22117290  .00000014  00000+0  00000+0 0  9993
2 38858  55.2937 128.6720 0000919 143.4488 216.6421  1.70473973 68188
GSAT0201 (PRN E18)      
1 40128U 14050A   23277.52667041 -.00000076  00000+0  00000+0 0  9999
2 40128  49.9083 313.3585 1607922 141.5217 231.1295  1.85519392 60019
GSAT0202 (PRN E14)      
1 40129U 14050B   23277.24695359 -.00000075  00000+0  00000+0 0  9991
2 40129  49.9275 312.4418 1605798 142.3213 230.1033  1.85520036 62177
GSAT0203 (PRN E26)      
1 40544U 15017A   23272.29929207 -.00000102  00000+0  00000+0 0  9999
2 40544  56.9059   8.5936 0003937 234.5687 125.4158  1.70476049 52956
GSAT0204 (PRN E22)      
1 40545U 15017B   23276.07251706 -.00000110  00000+0  00000+0 0  9991
2 40545  56.9134   8.5056 0004227 220.5578 139.4389  1.70475678 15408
GSAT0205 (PRN E24)      
1 40889U 15045A   23275.25385890  .00000005  00000+0  00000+0 0  9996
2 40889  55.3508 248.9248 0003949   3.0678 356.8946  1.70473099 50155
GSAT0206 (PRN E30)      
1 40890U 15045B   23276.64772219  .00000009  00000+0  00000+0 0  9991
2 40890  55.3484 248.8819 0002621 336.6508  23.3033  1.70473149 50201
GSAT0209 (PRN E09)      
1 41174U 15079A   23276.81939326  .00000015  00000+0  00000+0 0  9994
2 41174  55.3115 128.3888 0002287 342.0190  18.0589  1.70474085 47946
GSAT0208 (PRN E08)      
1 41175U 15079B   23277.03901922  .00000015  00000+0  00000+0 0  9991
2 41175  55.3101 128.3808 0001827 353.1930   6.8897  1.70474087 48364
GSAT0211 (PRN E02)      
1 41549U 16030A   23277.15999922  .00000009  00000+0  00000+0 0  9997
2 41549  55.4954 248.8513 0004014 318.1246  41.8129  1.70473239 45844
GSAT0210 (PRN E01)      
1 41550U 16030B   23276.86490069  .00000009  00000+0  00000+0 0  9994
2 41550  55.4950 248.8606 0003929 282.8243  77.0987  1.70473435 45833
GSAT0207 (PRN E07)      
1 41859U 16069A   23275.94005730  .00000017  00000+0  00000+0 0  9992
2 41859  54.9741 128.4777 0002079 313.6662  46.4070  1.70474056 42551
GSAT0212 (PRN E03)      
1 41860U 16069B   23276.96783936  .00000014  00000+0  00000+0 0  9995
2 41860  54.9723 128.4461 0001957  19.1169 340.9759  1.70474298 42821
GSAT0213 (PRN E04)      
1 41861U 16069C   23275.57438607  .00000019  00000+0  00000+0 0  9999
2 41861  54.9739 128.4908 0002039 269.5227  90.5465  1.70472901 42666
GSAT0214 (PRN E05)      
1 41862U 16069D   23277.48139774  .00000014  00000+0  00000+0 0  9990
2 41862  54.9730 128.4318 0001032 273.2604  86.8114  1.70472873 42821
GSAT0215 (PRN E21)      
1 43055U 17079A   23276.79666467  .00000009  00000+0  00000+0 0  9999
2 43055  55.4721 248.6867 0003417 277.0840  82.8438  1.70473895 36159
GSAT0216 (PRN E25)      
1 43056U 17079B   23276.50197397  .00000009  00000+0  00000+0 0  9990
2 43056  55.4727 248.6947 0005003 281.0140  78.8950  1.70474030 36163
GSAT0217 (PRN E27)      
1 43057U 17079C   23276.72234319  .00000009  00000+0  00000+0 0  9991
2 43057  55.4705 248.6877 0004466 292.9432  66.9760  1.70473990 36159
GSAT0218 (PRN E31)      
1 43058U 17079D   23276.35580581  .00000008  00000+0  00000+0 0  9995
2 43058  55.4709 248.6953 0005446 277.1652  82.7375  1.70473982 36145
GSAT0221 (PRN E15)      
1 43564U 18060A   23273.32270937 -.00000104  00000+0  00000+0 0  9991
2 43564  57.2877   8.5008 0003568 254.1728 105.8116  1.70476119 32274
GSAT0222 (PRN E33)      
1 43565U 18060B   23273.54083195 -.00000105  00000+0  00000+0 0  9995
2 43565  57.2914   8.4960 0004050 220.8731 139.1207  1.70475814 32322
GSAT0219 (PRN E36)      
1 43566U 18060C   23276.10946754 -.00000110  00000+0  00000+0 0  9996
2 43566  57.2907   8.4289 0003079 258.3568 101.6372  1.70476034 32347
GSAT0220 (PRN E13)      
1 43567U 18060D   23269.87746300 -.00000095  00000+0  00000+0 0  9990
2 43567  57.2899   8.5973 0002790 251.5228 108.4649  1.70475635 32221
GSAT0223 (PRN E34)      
1 49809U 21116A   23277.29379497 -.00000111  00000+0  00000+0 0  9994
2 49809  57.2820   8.2923 0003651 199.0596 122.7870  1.70476230 11351
GSAT0224 (PRN E10)      
1 49810U 21116B   23274.29079145 -.00000106  00000+0  00000+0 0  9994
2 49810  57.2825   8.3716 0002886 189.0507 202.2691  1.70475992 11336
